STARLINK-32770          
1 62741U 25014G   26068.25697484  .00033908  00000+0  12357-2 0  9991
2 62741  42.9954 156.6242 0000407 256.5000 103.5806 15.27588135 63197
2025-313BC              
1 67298U 25313BC  26068.18968176  .00075331  00000+0  26410-2 0  9997
2 67298  97.3985 144.8110 0008478 328.9209  31.1528 15.29126358  7890
